0 DELTA 1 DEB
1 07036U 73086AC  13280.46275933  .00000928  00000-0  62841-2 0  1346
2 07036 101.6351 329.9179 0029698 153.0922 322.2601 12.51131101816907
0 DELTA 1 DEB
1 07036U 73086AC  13282.78111265  .00001233  00000-0  82575-2 0  1357
2 07036 101.6351 332.1801 0029472 149.1573 323.7702 12.51137150817193
0 DELTA 1 DEB
1 07036U 73086AC  13287.08604823  .00001541  00000-0  10245-1 0  1370
2 07036 101.6346 336.3815 0028871 141.8818 272.6545 12.51148743817738
0 DELTA 1 DEB
1 07036U 73086AC  13289.49625287  .00001440  00000-0  95957-2 0  1387
2 07036 101.6343 338.7340 0028460 137.7903 328.0077 12.51157406818033
0 DELTA 1 DEB
1 07036U 73086AC  13291.80571331  .00001501  00000-0  99850-2 0  1390
2 07036 101.6341 340.9877 0028038 133.7105 289.8439 12.51164072818327
0 DELTA 1 DEB
1 07036U 73086AC  13294.11677082  .00001463  00000-0  97398-2 0  1401
2 07036 101.6343 343.2430 0027647 129.5957 258.9645 12.51172036818610
